{"type": "FeatureCollection", "features": [ {"type": "Feature", "properties": {"norad_id": 32171, "name": "FENGYUN 1C DEB", "group": "fengyun-1c-debris", "lat": -38.12162217860311, "lon": -117.50880892414621, "alt_km": 935.9286355808954, "timestamp": "2025-12-03T15:48:03.355985+00:00", "meta": {"OBJECT_NAME": "FENGYUN 1C DEB", "OBJECT_ID": "1999-025CTR", "EPOCH": "2025-11-30T22:04:53.153760", "MEAN_MOTION": 13.42391101, "ECCENTRICITY": 0.04876604, "INCLINATION": 102.8036, "RA_OF_ASC_NODE": 228.7362, "ARG_OF_PERICENTER": 31.3628, "MEAN_ANOMALY": 27.0117, "EPHEMERIS_TYPE": 0, "CLASSIFICATION_TYPE": "U", "NORAD_CAT_ID": 32171, "ELEMENT_SET_NO": 999, "REV_AT_EPOCH": 60457, "BSTAR": 0.0046651875, "MEAN_MOTION_DOT": 5.292e-05, "MEAN_MOTION_DDOT": 0}, "tle": {"line1": "1 32171U 99025CTR 25334.92005965  .00005292  00000+0  46652-2 0  9994", "line2": "2 32171 102.8036 228.7362 0487660  31.3628  27.0117 13.42391101604575"}}, "geometry": {"type": "Point", "coordinates": [-117.50880892414621, -38.12162217860311]}}, {"type": "Feature", "properties": {"norad_id": 32174, "name": "FENGYUN 1C DEB", "group": "fengyun-1c-debris", "lat": -70.76684534058775, "lon": -165.63105308381986, "alt_km": 737.5868571555557, "timestamp": "2025-12-03T15:48:03.355994+00:00", "meta": {"OBJECT_NAME": "FENGYUN 1C DEB", "OBJECT_ID": "1999-025CTU", "EPOCH": "2025-11-24T10:25:59.655072", "MEAN_MOTION": 14.17883196, "ECCENTRICITY": 0.01501888, "INCLINATION": 98.6025, "RA_OF_ASC_NODE": 31.1449, "ARG_OF_PERICENTER": 298.935, "MEAN_ANOMALY": 59.6834, "EPHEMERIS_TYPE": 0, "CLASSIFICATION_TYPE": "U", "NORAD_CAT_ID": 32174, "ELEMENT_SET_NO": 999, "REV_AT_EPOCH": 63846, "BSTAR": 0.00027509636, "MEAN_MOTION_DOT": 5.84e-06, "MEAN_MOTION_DDOT": 0}, "tle": {"line1": "1 32174U 99025CTU 25328.43471823  .00000584  00000+0  27510-3 0  9998", "line2": "2 32174  98.6025  31.1449 0150188 298.9350  59.6834 14.17883196638460"}}, "geometry": {"type": "Point", "coordinates": [-165.63105308381986, -70.76684534058775]}}, {"type": "Feature", "properties": {"norad_id": 32175, "name": "FENGYUN 1C DEB", "group": "fengyun-1c-debris", "lat": 1.6363311769420008, "lon": 146.87136148294542, "alt_km": 1024.3908965889486, "timestamp": "2025-12-03T15:48:03.356003+00:00", "meta": {"OBJECT_NAME": "FENGYUN 1C DEB", "OBJECT_ID": "1999-025CTV", "EPOCH": "2025-11-30T18:04:30.432000", "MEAN_MOTION": 13.94645307, "ECCENTRICITY": 0.01526915, "INCLINATION": 98.8237, "RA_OF_ASC_NODE": 323.8389, "ARG_OF_PERICENTER": 355.8244, "MEAN_ANOMALY": 4.1634, "EPHEMERIS_TYPE": 0, "CLASSIFICATION_TYPE": "U", "NORAD_CAT_ID": 32175, "ELEMENT_SET_NO": 999, "REV_AT_EPOCH": 59673, "BSTAR": 0.0032372864, "MEAN_MOTION_DOT": 4.731e-05, "MEAN_MOTION_DDOT": 0}, "tle": {"line1": "1 32175U 99025CTV 25334.75313000  .00004731  00000+0  32373-2 0  9993", "line2": "2 32175  98.8237 323.8389 0152691 355.8244   4.1634 13.94645307596738"}}, "geometry": {"type": "Point", "coordinates": [146.87136148294542, 1.6363311769420008]}}, {"type": "Feature", "properties": {"norad_id": 32177, "name": "FENGYUN 1C DEB", "group": "fengyun-1c-debris", "lat": 69.23400859875079, "lon": -168.95278881171393, "alt_km": 669.4773954300672, "timestamp": "2025-12-03T15:48:03.356012+00:00", "meta": {"OBJECT_NAME": "FENGYUN 1C DEB", "OBJECT_ID": "1999-025CTX", "EPOCH": "2025-11-29T07:24:03.692448", "MEAN_MOTION": 14.55966647, "ECCENTRICITY": 0.00524557, "INCLINATION": 99.0454, "RA_OF_ASC_NODE": 341.4938, "ARG_OF_PERICENTER": 85.1127, "MEAN_ANOMALY": 275.6054, "EPHEMERIS_TYPE": 0, "CLASSIFICATION_TYPE": "U", "NORAD_CAT_ID": 32177, "ELEMENT_SET_NO": 999, "REV_AT_EPOCH": 70843, "BSTAR": 0.0012780611, "MEAN_MOTION_DOT": 5.674e-05, "MEAN_MOTION_DDOT": 0}, "tle": {"line1": "1 32177U 99025CTX 25333.30837607  .00005674  00000+0  12781-2 0  9997", "line2": "2 32177  99.0454 341.4938 0052455  85.1127 275.6054 14.55966647708434"}}, "geometry": {"type": "Point", "coordinates": [-168.95278881171393, 69.23400859875079]}}, {"type": "Feature", "properties": {"norad_id": 32178, "name": "FENGYUN 1C DEB", "group": "fengyun-1c-debris", "lat": -36.161698226772856, "lon": -14.799702633027984, "alt_km": 759.7483520825081, "timestamp": "2025-12-03T15:48:03.356022+00:00", "meta": {"OBJECT_NAME": "FENGYUN 1C DEB", "OBJECT_ID": "1999-025CTY", "EPOCH": "2025-11-26T06:46:13.443456", "MEAN_MOTION": 14.22843314, "ECCENTRICITY": 0.00951304, "INCLINATION": 100.3039, "RA_OF_ASC_NODE": 328.9436, "ARG_OF_PERICENTER": 8.654, "MEAN_ANOMALY": 351.6247, "EPHEMERIS_TYPE": 0, "CLASSIFICATION_TYPE": "U", "NORAD_CAT_ID": 32178, "ELEMENT_SET_NO": 999, "REV_AT_EPOCH": 63769, "BSTAR": 0.0014846781, "MEAN_MOTION_DOT": 3.436e-05, "MEAN_MOTION_DDOT": 0}, "tle": {"line1": "1 32178U 99025CTY 25330.28210004  .00003436  00000+0  14847-2 0  9997", "line2": "2 32178 100.3039 328.9436 0095130   8.6540 351.6247 14.22843314637696"}}, "geometry": {"type": "Point", "coordinates": [-14.799702633027984, -36.161698226772856]}}, {"type": "Feature", "properties": {"norad_id": 32179, "name": "FENGYUN 1C DEB", "group": "fengyun-1c-debris", "lat": -69.08395621611754, "lon": -177.56944934083742, "alt_km": 802.5360129739429, "timestamp": "2025-12-03T15:48:03.356031+00:00", "meta": {"OBJECT_NAME": "FENGYUN 1C DEB", "OBJECT_ID": "1999-025CTZ", "EPOCH": "2025-12-03T02:46:28.571808", "MEAN_MOTION": 14.0367335, "ECCENTRICITY": 0.01447713, "INCLINATION": 98.911, "RA_OF_ASC_NODE": 26.1355, "ARG_OF_PERICENTER": 216.7043, "MEAN_ANOMALY": 172.1012, "EPHEMERIS_TYPE": 0, "CLASSIFICATION_TYPE": "U", "NORAD_CAT_ID": 32179, "ELEMENT_SET_NO": 999, "REV_AT_EPOCH": 65593, "BSTAR": 0.00012219611, "MEAN_MOTION_DOT": 1.67e-06, "MEAN_MOTION_DDOT": 0}, "tle": {"line1": "1 32179U 99025CTZ 25337.11560847  .00000167  00000+0  12220-3 0  9992", "line2": "2 32179  98.9110  26.1355 0144771 216.7043 172.1012 14.03673350655935"}}, "geometry": {"type": "Point", "coordinates": [-177.56944934083742, -69.08395621611754]}}, {"type": "Feature", "properties": {"norad_id": 32180, "name": "FENGYUN 1C DEB", "group": "fengyun-1c-debris", "lat": 32.79972693585758, "lon": -156.12046797746711, "alt_km": 948.5014236434254, "timestamp": "2025-12-03T15:48:03.356040+00:00", "meta": {"OBJECT_NAME": "FENGYUN 1C DEB", "OBJECT_ID": "1999-025CUA", "EPOCH": "2025-12-03T08:26:42.056160", "MEAN_MOTION": 13.82323819, "ECCENTRICITY": 0.01360392, "INCLINATION": 99.5871, "RA_OF_ASC_NODE": 17.3149, "ARG_OF_PERICENTER": 235.2648, "MEAN_ANOMALY": 188.4444, "EPHEMERIS_TYPE": 0, "CLASSIFICATION_TYPE": "U", "NORAD_CAT_ID": 32180, "ELEMENT_SET_NO": 999, "REV_AT_EPOCH": 94138, "BSTAR": 0.00015780495, "MEAN_MOTION_DOT": 1.36e-06, "MEAN_MOTION_DDOT": 0}, "tle": {"line1": "1 32180U 99025CUA 25337.35187565  .00000136  00000+0  15780-3 0  9992", "line2": "2 32180  99.5871  17.3149 0136039 235.2648 188.4444 13.82323819941380"}}, "geometry": {"type": "Point", "coordinates": [-156.12046797746711, 32.79972693585758]}}, {"type": "Feature", "properties": {"norad_id": 32181, "name": "FENGYUN 1C DEB", "group": "fengyun-1c-debris", "lat": -11.563250776678668, "lon": -101.73653951650341, "alt_km": 700.6267544140292, "timestamp": "2025-12-03T15:48:03.356049+00:00", "meta": {"OBJECT_NAME": "FENGYUN 1C DEB", "OBJECT_ID": "1999-025CUB", "EPOCH": "2025-11-30T18:20:52.902816", "MEAN_MOTION": 14.5587127, "ECCENTRICITY": 0.00742263, "INCLINATION": 99.4729, "RA_OF_ASC_NODE": 76.9403, "ARG_OF_PERICENTER": 120.9158, "MEAN_ANOMALY": 31.1571, "EPHEMERIS_TYPE": 0, "CLASSIFICATION_TYPE": "U", "NORAD_CAT_ID": 32181, "ELEMENT_SET_NO": 999, "REV_AT_EPOCH": 96546, "BSTAR": 0.0011280546, "MEAN_MOTION_DOT": 5.08e-05, "MEAN_MOTION_DDOT": 0}, "tle": {"line1": "1 32181U 99025CUB 25334.76450119  .00005080  00000+0  11281-2 0  9997", "line2": "2 32181  99.4729  76.9403 0074226 120.9158  31.1571 14.55871270965461"}}, "geometry": {"type": "Point", "coordinates": [-101.73653951650341, -11.563250776678668]}}, {"type": "Feature", "properties": {"norad_id": 32183, "name": "FENGYUN 1C DEB", "group": "fengyun-1c-debris", "lat": 62.497466327921444, "lon": 12.012899674295854, "alt_km": 824.0865474288148, "timestamp": "2025-12-03T15:48:03.356058+00:00", "meta": {"OBJECT_NAME": "FENGYUN 1C DEB", "OBJECT_ID": "1999-025CUD", "EPOCH": "2025-12-02T20:46:03.470880", "MEAN_MOTION": 14.1004773, "ECCENTRICITY": 0.00432965, "INCLINATION": 98.7142, "RA_OF_ASC_NODE": 28.3779, "ARG_OF_PERICENTER": 88.5408, "MEAN_ANOMALY": 272.0723, "EPHEMERIS_TYPE": 0, "CLASSIFICATION_TYPE": "U", "NORAD_CAT_ID": 32183, "ELEMENT_SET_NO": 999, "REV_AT_EPOCH": 72625, "BSTAR": 0.00090671194, "MEAN_MOTION_DOT": 1.573e-05, "MEAN_MOTION_DDOT": 0}, "tle": {"line1": "1 32183U 99025CUD 25336.86531795  .00001573  00000+0  90671-3 0  9996", "line2": "2 32183  98.7142  28.3779 0043296  88.5408 272.0723 14.10047730726255"}}, "geometry": {"type": "Point", "coordinates": [12.012899674295854, 62.497466327921444]}}, {"type": "Feature", "properties": {"norad_id": 32184, "name": "FENGYUN 1C DEB", "group": "fengyun-1c-debris", "lat": -59.532762790620836, "lon": -78.09311460800858, "alt_km": 485.94126564869566, "timestamp": "2025-12-03T15:48:03.356067+00:00", "meta": {"OBJECT_NAME": "FENGYUN 1C DEB", "OBJECT_ID": "1999-025CUE", "EPOCH": "2025-11-29T15:43:46.155648", "MEAN_MOTION": 15.41244079, "ECCENTRICITY": 0.00737243, "INCLINATION": 98.1191, "RA_OF_ASC_NODE": 111.5023, "ARG_OF_PERICENTER": 34.7178, "MEAN_ANOMALY": 325.8845, "EPHEMERIS_TYPE": 0, "CLASSIFICATION_TYPE": "U", "NORAD_CAT_ID": 32184, "ELEMENT_SET_NO": 999, "REV_AT_EPOCH": 98202, "BSTAR": 0.0015682577, "MEAN_MOTION_DOT": 0.00072323, "MEAN_MOTION_DDOT": 0}, "tle": {"line1": "1 32184U 99025CUE 25333.65539532  .00072323  00000+0  15683-2 0  9998", "line2": "2 32184  98.1191 111.5023 0073724  34.7178 325.8845 15.41244079982028"}}, "geometry": {"type": "Point", "coordinates": [-78.09311460800858, -59.532762790620836]}}]}